ONEWEB-0199             
1 48234U 21031AA  24219.60574803 -.00000104  00000+0 -31567-3 0  9990
2 48234  87.8921  64.8717 0001740  79.3641 280.7684 13.14502080158983
ONEWEB-0203             
1 48235U 21031AB  24219.59622283 -.00000140  00000+0 -41220-3 0  9992
2 48235  87.8923  64.8752 0001414  74.5392 285.5894 13.14501129158993
ONEWEB-0197             
1 48236U 21031AC  24219.57165244  .00000229  00000+0  58288-3 0  9998
2 48236  87.8924  64.8892 0002116  83.2812 276.8559 13.14501525158906
ONEWEB-0194             
1 48237U 21031AD  24219.55024595  .00000139  00000+0  33913-3 0  9998
2 48237  87.8922  64.8867 0001670  77.4866 282.6450 13.14502270159077
ONEWEB-0193             
1 48238U 21031AE  24219.56610180  .00000255  00000+0  65373-3 0  9995
2 48238  87.8923  64.8918 0001650  86.4788 273.6531 13.14501875159022
ONEWEB-0191             
1 48239U 21031AF  24219.57720012  .00000147  00000+0  36116-3 0  9996
2 48239  87.8922  64.8716 0001688  85.6218 274.5104 13.14501612158886
ONEWEB-0195             
1 48240U 21031AG  24219.55421095  .00000188  00000+0  47172-3 0  9994
2 48240  87.8919  64.8753 0001602  98.9094 261.2217 13.14501701158865
ONEWEB-0201             
1 48241U 21031AH  24219.54309878 -.00000272  00000+0 -76786-3 0  9997
2 48241  87.8922  64.9137 0001759  90.4317 269.7014 13.14502182159093
